#aV2012  6  2  0  0  0.00000000     288 DD+AD WGS84 FIT  NGA
## 1690 518400.00000000   300.00000000 56080 0.0000000000000
+   31     1  2  3  4  5  6  7  8  9 10 11 12 13 14 15 16 17
+         18 19 20 21 22 23 25 26 27 28 29 30 31 32  0  0  0
+          0  0  0  0  0  0  0  0  0  0  0  0  0  0  0  0  0
+          0  0  0  0  0  0  0  0  0  0  0  0  0  0  0  0  0
+          0  0  0  0  0  0  0  0  0  0  0  0  0  0  0  0  0
++         2  2  2  2  2  2  2  2  2  2  2  2  2  2  2  2  2
++         2  2  2  2  2  2  2  2  2  2  2  2  2  2  2  0  0
++         0  0  0  0  0  0  0  0  0  0  0  0  0  0  0  0  0
++         0  0  0  0  0  0  0  0  0  0  0  0  0  0  0  0  0
++         0  0  0  0  0  0  0  0  0  0  0  0  0  0  0  0  0
%c cc cc ccc ccc cccc cccc cccc cccc ccccc ccccc ccccc ccccc
%c cc cc ccc ccc cccc cccc cccc cccc ccccc ccccc ccccc ccccc
%f  0.0000000  0.000000000  0.00000000000  0.000000000000000
%f  0.0000000  0.000000000  0.00000000000  0.000000000000000
%i    0    0    0    0      0      0      0      0         0
%i    0    0    0    0      0      0      0      0         0
/*      NGA, ST. LOUIS,MO.                                  
/*   EPHEMERIS COMPUTED FROM  1 DAYS OF DATA
/*   EPOCHA SMOOTHER  
/* CCCCCCCCCCCCCCCCCCCCCCCCCCCCCCCCCCCCCCCCCCCCCCCCCCCCCCCCC
*  2012  6  2  3 20  0.00000000                                                 
P  1  19972.764915   9230.303393  14896.131188    259.444763                    
V  1   9703.429954  16367.475428 -23107.110732      0.017928                    
P  2 -12639.593952 -23036.413234   5559.577590    392.274309                    
V  2   6514.947819   3582.422103  29871.906316      0.012987                    
P  3  11823.245492  12779.925013 -20593.302872     56.867109                    
V  3 -24132.416709   7150.347546  -9364.930748      0.050807                    
P  4  -2047.916944 -21382.615529  15165.539587    201.743573                    
V  4  14116.424135  14290.235442  22015.086161      0.115425                    
P  5  -5238.294637 -19302.349109 -17433.752803   -321.283452                    
V  5  10511.349311 -19619.029745  18708.463881     -0.037423                    
P  6   6842.400628  14495.073925 -21087.368283     21.804344                    
V  6 -26627.689447   5127.081890  -4782.295060     -0.030467                    
P  7  15164.591811  -3835.830918 -21482.853936     86.729728                    
V  7  15608.638484  22324.276193   6772.407991      0.035608                    
P  8   5942.015959 -15649.972379 -20387.578430      1.348154                    
V  8  14263.845093  21904.987092 -13173.617444      0.000991                    
P  9 -19598.278112 -13537.450959  11145.835050    162.270154                    
V  9  -7510.964616 -13126.320063 -27809.684984      0.026173                    
P 10   8606.041466 -24705.813952  -3337.023965    -40.085056                    
V 10   4899.449732  -2154.345898  31304.882273     -0.012670                    
P 11  23196.973007  11530.563071   6176.558753   -267.387896                    
V 11   3780.880519   8780.976994 -28480.750064     -0.038821                    
P 12 -14632.767925  -3315.569790  21894.390020     72.264272                    
V 12  11310.996739 -25371.639711   3907.397132      0.020769                    
P 13  24751.611282  -5878.417892  -7956.651470    203.649391                    
V 13   9893.531309   1539.716149  30088.141832     -0.023992                    
P 14 -10963.229592  13959.448282  19887.396064    204.196049                    
V 14 -24882.330965    252.668706 -14161.489623      0.008717                    
P 15 -23891.705247  -4602.580488 -10905.588758    -91.528088                    
V 15  13286.469361  -4579.630112 -26982.709747     -0.001590                    
P 16   3801.148764  19314.419186 -17671.213974   -236.863497                    
V 16 -11131.210167  19631.435398  19368.436746     -0.012280                    
P 17  12431.571075 -14143.514265  18814.697192    124.282640                    
V 17  23641.865899   -422.661358 -16322.050114     -0.028427                    
P 18 -16630.388627  16884.389638 -11249.599955    198.561468                    
V 18   2800.846810 -15198.031930 -26477.110465      0.018035                    
P 19  22281.870172   8079.117754 -12425.926272   -271.172704                    
V 19 -15497.905671   2471.982562 -25889.199207     -0.037348                    
P 20  16909.294035  -2156.443399  20197.048143     63.649396                    
V 20  -8134.499332  24859.301197   9457.118927      0.002083                    
P 21 -13090.156318   8557.556691 -20981.083560   -227.561475                    
V 21 -16669.222365 -22396.156811    661.217405     -0.024471                    
P 22  -9443.774379  24690.359445   1905.894503    144.240189                    
V 22  -4511.473850    425.570350 -30960.900010      0.001435                    
P 23  26490.008945    -30.532032   3864.478930    199.451395                    
V 23  -4531.404618   2957.430371  30996.050348     -0.037388                    
P 25 -17154.294884  12066.925390  16224.361369     34.779397                    
V 25   6380.256690 -19740.847658  21443.635635      0.005136                    
P 26 -12793.849325 -12982.662961 -20071.188922   -385.617649                    
V 26  23932.027112  -1347.281097 -14493.196102      0.100056                    
P 27 -19792.608254 -16801.677845   7335.030699    394.260650                    
V 27  -4043.430312  -7470.568356 -30118.776243      0.040867                    
P 28  11670.493407 -23714.768158    -21.776578    150.386099                    
V 28   1867.891705   1695.057622 -32314.514280      0.039983                    
P 29 -25808.846236   4645.705893  -3983.883982    319.150542                    
V 29  -5330.705790  -2363.918822  31305.759578      0.039479                    
P 30  -1088.991151  24983.712993  -9302.902488   -213.397698                    
V 30  -5792.208139  10028.849694  28728.726936     -0.214525                    
P 31   3264.813022  21729.540173  14929.014418    248.581087                    
V 31 -12276.061852 -14190.953252  23872.445417      0.040600                    
P 32  13101.039982   8352.019939  21761.680489   -450.064755                    
V 32 -12807.463561  23949.217526  -1021.902222     -0.039664                    
EOF
